{
  "type": "FeatureCollection",
  "generator": "overpass-turbo",
  "copyright": "The data included in this document is from www.openstreetmap.org. The data is made available under ODbL.",
  "timestamp": "2026-01-16T23:50:59Z",
  "features": [
    {
      "id": "basilica-costantiniana-di-s-agnese",
      "wikidataId": "Q124154237",
      "type": "Feature",
      "properties": {
        "name": "Basilica costantiniana di S. Agnese",
        "wikimedia_commons": "Category:Sant'Agnese fuori le mura (Rome) - Basilica costantiniana"
      },
      "geometry": {
        "type": "Point",
        "coordinates": [12.5173079, 41.9231188]
      },
      "geoPlaceId": "way/23944398"
    },
    {
      "id": "cloisters-of-bramante",
      "wikidataId": "Q25100007",
      "type": "Feature",
      "properties": {
        "addr:city": "Roma",
        "addr:housenumber": "5",
        "addr:postcode": "00186",
        "addr:street": "Arco della Pace",
        "name": "Chiostro del Bramante",
        "name:en": "Cloisters of Bramante",
        "tourism": "museum",
        "website": "https://www.chiostrodelbramante.it/",
        "wikimedia_commons": "Category:Santa Maria della Pace (Rome) - Cloister",
        "wikipedia": "en:Chiostro del Bramante"
      },
      "geometry": {
        "type": "Point",
        "coordinates": [12.4715028, 41.9000215]
      },
      "geoPlaceId": "node/1674754682"
    },
    {
      "id": "forum-boarium",
      "wikidataId": "Q283650",
      "type": "Feature",
      "properties": {
        "name": "Foro Boario",
        "name:en": "Forum Boarium",
        "wikimedia_commons": "Category:Foro Boario (Rome)",
        "wikipedia": "it:Foro Boario"
      },
      "geometry": {
        "type": "Point",
        "coordinates": [12.4808938, 41.8888528]
      },
      "geoPlaceId": "way/27350575"
    },
    {
      "id": "piazza-navona",
      "wikidataId": "Q463400",
      "type": "Feature",
      "properties": {
        "name": "Piazza Navona",
        "tourism": "attraction",
        "wikimedia_commons": "Category:Piazza Navona (Rome)",
        "wikipedia": "it:Piazza Navona"
      },
      "geometry": {
        "type": "Point",
        "coordinates": [12.4730991, 41.8989256]
      },
      "geoPlaceId": "way/4247138"
    },
    {
      "id": "castle-of-the-holy-angel",
      "wikidataId": "Q486382",
      "type": "Feature",
      "properties": {
        "email": "sspsae-rm.castelsantangelo@beniculturali.it",
        "name": "Castel Sant’Angelo",
        "name:en": "Castle of the Holy Angel",
        "tourism": "museum",
        "website": "https://direzionemuseiroma.cultura.gov.it/museo-nazionale-di-castel-santangelo/",
        "wikimedia_commons": "Category:Castel Sant'Angelo (Rome)",
        "wikipedia": "it:Castel Sant'Angelo"
      },
      "geometry": {
        "type": "Point",
        "coordinates": [12.4663312, 41.9030762]
      },
      "geoPlaceId": "way/8035487"
    },
    {
      "id": "basilica-of-saint-paul-outside-the-walls",
      "wikidataId": "Q231699",
      "type": "Feature",
      "properties": {
        "addr:city": "Roma",
        "addr:housenumber": "1",
        "addr:postcode": "00146",
        "addr:street": "Piazzale San Paolo",
        "email": "info@basilicasanpaolo.org",
        "name": "Basilica di San Paolo fuori le mura",
        "name:en": "Basilica of Saint Paul Outside the Walls",
        "tourism": "attraction",
        "website": "https://www.basilicasanpaolo.org/",
        "wikimedia_commons": "Category:Basilica of Saint Paul Outside the Walls",
        "wikipedia": "it:Basilica di San Paolo fuori le mura"
      },
      "geometry": {
        "type": "Point",
        "coordinates": [12.4768291, 41.8586828]
      },
      "geoPlaceId": "way/23370510"
    },
    {
      "id": "torre-valca",
      "wikidataId": "Q111193124",
      "type": "Feature",
      "properties": {
        "name": "Torre Valca"
      },
      "geometry": {
        "type": "Point",
        "coordinates": [12.5292531, 41.8581318]
      },
      "geoPlaceId": "way/23955573"
    },
    {
      "id": "palazzo-rondinini",
      "wikidataId": "Q48809118",
      "type": "Feature",
      "properties": {
        "name": "Palazzo Rondinini",
        "wikimedia_commons": "Category:Palazzo Rondinini",
        "wikipedia": "it:Palazzo Rondinini"
      },
      "geometry": {
        "type": "Point",
        "coordinates": [12.4768992, 41.9088977]
      },
      "geoPlaceId": "way/24186531"
    },
    {
      "id": "capitol-square",
      "wikidataId": "Q34921",
      "type": "Feature",
      "properties": {
        "name": "Piazza del Campidoglio",
        "name:en": "Capitol Square",
        "tourism": "attraction",
        "wikimedia_commons": "Category:Piazza del Campidoglio (Rome)",
        "wikipedia": "it:Piazza del Campidoglio"
      },
      "geometry": {
        "type": "Point",
        "coordinates": [12.4829654, 41.8932288]
      },
      "geoPlaceId": "way/23055100"
    },
    {
      "id": "arch-of-titus",
      "wikidataId": "Q723887",
      "type": "Feature",
      "properties": {
        "name": "Arco di Tito",
        "name:en": "Arch of Titus",
        "tourism": "attraction",
        "wikimedia_commons": "Category:Arch of Titus (Rome)",
        "wikipedia": "en:Arch of Titus"
      },
      "geometry": {
        "type": "Point",
        "coordinates": [12.4885842, 41.8906722]
      },
      "geoPlaceId": "way/23913953"
    },
    {
      "id": "basilica-parrocchiale-dei-santi-pietro-e-paolo",
      "wikidataId": "Q774696",
      "type": "Feature",
      "properties": {
        "name": "Basilica parrocchiale dei Santi Pietro e Paolo",
        "tourism": "attraction",
        "website": "https://www.santipietroepaoloroma.it/",
        "wikipedia": "it:Basilica dei Santi Pietro e Paolo (Roma)"
      },
      "geometry": {
        "type": "Point",
        "coordinates": [12.4593082, 41.833704]
      },
      "geoPlaceId": "way/23432370"
    },
    {
      "id": "accademia-di-san-luca",
      "type": "Feature",
      "properties": {
        "addr:housenumber": "77",
        "addr:postcode": "00187",
        "addr:street": "Piazza dell'Accademia di San Luca",
        "name": "Accademia di San Luca",
        "tourism": "museum"
      },
      "geometry": {
        "type": "Point",
        "coordinates": [12.4836806, 41.9016166]
      },
      "geoPlaceId": "node/7012887885"
    },
    {
      "id": "acqua-marcia",
      "wikidataId": "Q622943",
      "type": "Feature",
      "properties": {
        "name": "Acqua Marcia",
        "wikipedia": "en:Aqua Marcia"
      },
      "geometry": {
        "type": "Point",
        "coordinates": [12.5390264, 41.8712135]
      },
      "geoPlaceId": "way/113758266"
    },
    {
      "id": "a-umberto-ii-re-d-italia",
      "type": "Feature",
      "properties": {
        "name": "A Umberto II Re d'Italia"
      },
      "geometry": {
        "type": "Point",
        "coordinates": [12.5038481, 41.9251799]
      },
      "geoPlaceId": "node/2002031137"
    },
    {
      "id": "acea-heritage",
      "type": "Feature",
      "properties": {
        "addr:city": "Roma",
        "addr:postcode": "00154",
        "addr:street": "Piazzale Ostiense",
        "museum": "technology",
        "name": "ACEA Heritage",
        "operator": "ACEA",
        "operator:type": "public",
        "tourism": "museum"
      },
      "geometry": {
        "type": "Point",
        "coordinates": [12.4836883, 41.8749809]
      },
      "geoPlaceId": "node/13028360534"
    },
    {
      "id": "achille-joachim-bligny",
      "type": "Feature",
      "properties": {
        "name": "Achille-Joachim Bligny"
      },
      "geometry": {
        "type": "Point",
        "coordinates": [12.5232323, 41.9022115]
      },
      "geoPlaceId": "node/7820567640"
    },
    {
      "id": "acquedotto-dei-sette-bassi",
      "type": "Feature",
      "properties": {
        "name": "Acquedotto dei Sette Bassi"
      },
      "geometry": {
        "type": "Point",
        "coordinates": [12.5721425, 41.8364569]
      },
      "geoPlaceId": "way/151952790"
    },
    {
      "id": "acquedotto-dei-sette-bassi-2",
      "type": "Feature",
      "properties": {
        "name": "Acquedotto dei Sette Bassi"
      },
      "geometry": {
        "type": "Point",
        "coordinates": [12.5774251, 41.8392242]
      },
      "geoPlaceId": "way/317695840"
    },
    {
      "id": "acquedotto-dei-sette-bassi-3",
      "type": "Feature",
      "properties": {
        "name": "Acquedotto dei Sette Bassi"
      },
      "geometry": {
        "type": "Point",
        "coordinates": [12.5786812, 41.8415101]
      },
      "geoPlaceId": "way/997532430"
    },
    {
      "id": "basilica-of-saint-mary-major",
      "wikidataId": "Q186282",
      "type": "Feature",
      "properties": {
        "addr:city": "Roma",
        "addr:postcode": "00185",
        "addr:street": "Piazza di Santa Maria Maggiore",
        "name": "Basilica di Santa Maria Maggiore",
        "name:en": "Basilica of Saint Mary Major",
        "tourism": "attraction",
        "wikimedia_commons": "Category:Santa Maria Maggiore (Rome)",
        "wikipedia": "it:Basilica di Santa Maria Maggiore"
      },
      "geometry": {
        "type": "Point",
        "coordinates": [12.4984576, 41.8976084]
      },
      "geoPlaceId": "way/131564482"
    },
    {
      "id": "amphitheatre-castrense",
      "wikidataId": "Q475012",
      "type": "Feature",
      "properties": {
        "name": "Anfiteatro castrense",
        "name:en": "Amphitheatre Castrense",
        "wikimedia_commons": "Category:Anfiteatro Castrense",
        "wikipedia": "it:Anfiteatro castrense"
      },
      "geometry": {
        "type": "Point",
        "coordinates": [12.5150843, 41.8876475]
      },
      "geoPlaceId": "node/1791417716"
    },
    {
      "id": "basilica-di-santa-maria-sopra-minerva",
      "wikidataId": "Q823685",
      "type": "Feature",
      "properties": {
        "name": "Basilica di Santa Maria sopra Minerva",
        "tourism": "attraction",
        "wikimedia_commons": "Category:Santa Maria sopra Minerva (Rome)",
        "wikipedia": "it:Basilica di Santa Maria sopra Minerva"
      },
      "geometry": {
        "type": "Point",
        "coordinates": [12.4783662, 41.8979917]
      },
      "geoPlaceId": "way/25400176"
    },
    {
      "id": "acquedotto-dei-sette-bassi-4",
      "type": "Feature",
      "properties": {
        "name": "Acquedotto dei Sette Bassi"
      },
      "geometry": {
        "type": "Point",
        "coordinates": [12.5787351, 41.8417417]
      },
      "geoPlaceId": "way/997532432"
    },
    {
      "id": "acquedotto-dei-sette-bassi-5",
      "type": "Feature",
      "properties": {
        "name": "Acquedotto dei Sette Bassi"
      },
      "geometry": {
        "type": "Point",
        "coordinates": [12.5787241, 41.8418608]
      },
      "geoPlaceId": "way/997532434"
    },
    {
      "id": "acquedotto-dei-sette-bassi-6",
      "type": "Feature",
      "properties": {
        "name": "Acquedotto dei Sette Bassi"
      },
      "geometry": {
        "type": "Point",
        "coordinates": [12.5784441, 41.8410165]
      },
      "geoPlaceId": "way/997532436"
    },
    {
      "id": "acquedotto-dei-sette-bassi-7",
      "type": "Feature",
      "properties": {
        "name": "Acquedotto dei Sette Bassi"
      },
      "geometry": {
        "type": "Point",
        "coordinates": [12.5786003, 41.841327]
      },
      "geoPlaceId": "way/997532439"
    },
    {
      "id": "acquedotto-dei-sette-bassi-8",
      "type": "Feature",
      "properties": {
        "name": "Acquedotto dei Sette Bassi"
      },
      "geometry": {
        "type": "Point",
        "coordinates": [12.5784861, 41.8410942]
      },
      "geoPlaceId": "way/997532438"
    },
    {
      "id": "acquedotto-dei-sette-bassi-9",
      "type": "Feature",
      "properties": {
        "name": "Acquedotto dei Sette Bassi"
      },
      "geometry": {
        "type": "Point",
        "coordinates": [12.578297, 41.8407461]
      },
      "geoPlaceId": "way/997532441"
    },
    {
      "id": "acquedotto-dei-sette-bassi-10",
      "type": "Feature",
      "properties": {
        "name": "Acquedotto dei Sette Bassi"
      },
      "geometry": {
        "type": "Point",
        "coordinates": [12.5783412, 41.8408255]
      },
      "geoPlaceId": "way/997532446"
    },
    {
      "id": "acquedotto-dei-sette-bassi-11",
      "type": "Feature",
      "properties": {
        "name": "Acquedotto dei Sette Bassi"
      },
      "geometry": {
        "type": "Point",
        "coordinates": [12.5782172, 41.840601]
      },
      "geoPlaceId": "way/997532444"
    },
    {
      "id": "acquedotto-dei-sette-bassi-12",
      "type": "Feature",
      "properties": {
        "name": "Acquedotto dei Sette Bassi"
      },
      "geometry": {
        "type": "Point",
        "coordinates": [12.5780387, 41.8403159]
      },
      "geoPlaceId": "way/997532447"
    },
    {
      "id": "acquedotto-dei-sette-bassi-13",
      "type": "Feature",
      "properties": {
        "name": "Acquedotto dei Sette Bassi"
      },
      "geometry": {
        "type": "Point",
        "coordinates": [12.5751662, 41.8369817]
      },
      "geoPlaceId": "way/997532451"
    },
    {
      "id": "acquedotto-del-grande-ninfeo",
      "type": "Feature",
      "properties": {
        "name": "Acquedotto del grande Ninfeo"
      },
      "geometry": {
        "type": "Point",
        "coordinates": [12.5494195, 41.8284359]
      },
      "geoPlaceId": "way/331242877"
    },
    {
      "id": "acquedotto-dei-sette-bassi-14",
      "type": "Feature",
      "properties": {
        "name": "Acquedotto dei Sette Bassi"
      },
      "geometry": {
        "type": "Point",
        "coordinates": [12.5750568, 41.8369418]
      },
      "geoPlaceId": "way/997532453"
    },
    {
      "id": "acquedotto-dei-sette-bassi-15",
      "type": "Feature",
      "properties": {
        "name": "Acquedotto dei Sette Bassi"
      },
      "geometry": {
        "type": "Point",
        "coordinates": [12.5734651, 41.8365259]
      },
      "geoPlaceId": "way/997532455"
    },
    {
      "id": "acquedotto-dell-acqua-vergine",
      "wikidataId": "Q600139",
      "type": "Feature",
      "properties": {
        "name": "Acquedotto Vergine",
        "wikipedia": "it:Aqua Virgo"
      },
      "geometry": {
        "type": "Point",
        "coordinates": [12.5752822, 41.9038801]
      },
      "geoPlaceId": "way/312005914"
    },
    {
      "id": "acquedotto-julio",
      "type": "Feature",
      "properties": {
        "name": "Acquedotto Julio"
      },
      "geometry": {
        "type": "Point",
        "coordinates": [12.5072036, 41.8958215]
      },
      "geoPlaceId": "way/97834048"
    },
    {
      "id": "acquedotto-felice",
      "wikidataId": "Q14456361",
      "type": "Feature",
      "properties": {
        "name": "Acquedotto Felice",
        "wikimedia_commons": "Category:Aqua Felice (Rome)",
        "wikipedia": "it:Acquedotto Felice"
      },
      "geometry": {
        "type": "Point",
        "coordinates": [12.5339066, 41.8775109]
      },
      "geoPlaceId": "way/243044347"
    },
    {
      "id": "acquedotto-neroniano",
      "type": "Feature",
      "properties": {
        "name": "Acquedotto Neroniano"
      },
      "geometry": {
        "type": "Point",
        "coordinates": [12.4958147, 41.8851493]
      },
      "geoPlaceId": "way/112174949"
    },
    {
      "id": "acquedotto-vergine",
      "type": "Feature",
      "properties": {
        "name": "Acquedotto Vergine"
      },
      "geometry": {
        "type": "Point",
        "coordinates": [12.6001609, 41.9083585]
      },
      "geoPlaceId": "way/312002046"
    },
    {
      "id": "acquedotto-vergine-2",
      "type": "Feature",
      "properties": {
        "name": "Acquedotto Vergine"
      },
      "geometry": {
        "type": "Point",
        "coordinates": [12.626928, 41.9115853]
      },
      "geoPlaceId": "way/312007980",
      "wikidataId": "Q600139"
    },
    {
      "id": "adele-elvira-sacerdoti",
      "type": "Feature",
      "properties": {
        "name": "Adele Elvira Sacerdoti"
      },
      "geometry": {
        "type": "Point",
        "coordinates": [12.4679891, 41.9309179]
      },
      "geoPlaceId": "node/10136307263"
    },
    {
      "id": "aermacchi-mb-326",
      "type": "Feature",
      "properties": {
        "name": "Aermacchi MB-326"
      },
      "geometry": {
        "type": "Point",
        "coordinates": [12.5580465, 41.8686577]
      },
      "geoPlaceId": "node/5434893199"
    },
    {
      "id": "agli-eroici-figli-di-ostia",
      "type": "Feature",
      "properties": {
        "name": "Agli eroici figli di Ostia"
      },
      "geometry": {
        "type": "Point",
        "coordinates": [12.3018493, 41.7602112]
      },
      "geoPlaceId": "node/4610337594"
    },
    {
      "id": "ara-pacis-augustae",
      "wikidataId": "Q623612",
      "type": "Feature",
      "properties": {
        "name": "Ara Pacis Augustae",
        "tourism": "attraction",
        "wikimedia_commons": "Category:Ara Pacis",
        "wikipedia": "en:Ara Pacis"
      },
      "geometry": {
        "type": "Point",
        "coordinates": [12.4755017, 41.9061511]
      },
      "geoPlaceId": "way/201291264"
    }
  ]
}
