{
  "type": "FeatureCollection",
  "generator": "overpass-turbo",
  "copyright": "The data included in this document is from www.openstreetmap.org. The data is made available under ODbL.",
  "timestamp": "2026-01-16T23:50:59Z",
  "features": [

    {
      "type": "Feature",
      "properties": {
        "addr:city": "Roma",
        "addr:country": "IT",
        "addr:housename": "Villa Giulia",
        "addr:housenumber": "9",
        "addr:postcode": "00196",
        "addr:street": "Piazzale di Villa Giulia",
        "email": "mn-etru@beniculturali.it",
        "museum": "history",
        "name": "Museo Nazionale Etrusco di Villa Giulia",
        "name:en": "National Etruscan Museum",
        "operator": "Ministero della cultura",
        "operator:type": "government",
        "tourism": "museum",
        "website": "https://www.museoetru.it",
        "wikidata": "Q15055388",
        "wikimedia_commons": "Category:Museo nazionale etrusco di Villa Giulia",
        "wikipedia": "it:Museo nazionale etrusco di Villa Giulia",
      },
      "geometry": {
        "type": "Point",
        "coordinates": [
          12.4778078,
          41.9183575
        ]
      },
      "id": "2505"
    }
  ]
}
